TRANSPORTER-12 OBJECT BT
1 62674U 25009BT  26068.71416991  .00013824  00000+0  51029-3 0  9998
2 62674  97.4094 151.5992 0003682 313.5044  46.5889 15.27872239121360
STARLINK-32905          
1 62923U 25027S   26068.45253007  .00018523  00000+0  68128-3 0  9992
2 62923  43.0020 130.4146 0001796 279.7302  80.3347 15.27563415 61501
